OBJECT_NAME,OBJECT_ID,EPOCH,MEAN_MOTION,ECCENTRICITY,INCLINATION,RA_OF_ASC_NODE,ARG_OF_PERICENTER,MEAN_ANOMALY,EPHEMERIS_TYPE,CLASSIFICATION_TYPE,NORAD_CAT_ID,ELEMENT_SET_NO,REV_AT_EPOCH,BSTAR,MEAN_MOTION_DOT,MEAN_MOTION_DDOT
LEMUR-2-FINNIAN,2025-276DX,2026-07-08T00:29:04.740864,15.00562767,.00079857,97.5341,259.3594,26.3338,333.8291,0,U,66782,999,2312,.17772481E-3,.2186E-4,0
LEMUR-2-STARLIGHT,2025-276DY,2026-07-08T11:05:08.990304,14.99299988,.00147688,97.5226,259.3732,66.9055,293.3724,0,U,66783,999,3338,.32970851E-3,.3978E-4,0
LEMUR-2-TARTIFLETTE,2025-276DZ,2026-07-08T11:02:45.532608,14.99288887,.00137801,97.5227,259.3794,74.7429,285.5317,0,U,66784,999,3338,.26924114E-3,.3236E-4,0
LEMUR-2-VUKASIN,2025-276EA,2026-07-08T10:27:53.953632,15.00504973,.00040755,97.5243,259.7023,74.7195,285.4479,0,U,66785,999,3333,.24126679E-3,.2983E-4,0
LEMUR-2-HOTSPUR-TOM,2025-276EB,2026-07-08T10:54:04.904352,14.99196768,.00139227,97.5218,259.3502,65.8850,294.3828,0,U,66786,999,3331,.29125901E-3,.3497E-4,0
LEMUR-2-MYRA,2025-276EC,2026-07-08T11:14:05.025408,15.00537407,.00185392,97.5214,259.6537,74.6682,285.6589,0,U,66787,999,3340,.29914018E-3,.3728E-4,0
LEMUR-2 FIKRETDENGIZ,2026-004A,2026-07-08T10:41:27.591072,14.88484569,.00104543,97.8025,187.6788,74.6204,285.6167,0,U,67363,999,2644,.21745442E-3,.1967E-4,0
TWILIGHT-1 OBJECT B,2026-004B,2026-07-08T06:39:44.462880,14.87777388,.00100974,97.8068,187.5184,65.6176,294.6093,0,U,67364,999,2642,.16411071E-3,.1445E-4,0
LEMUR-2-MARIO-SOUSA,2026-004C,2026-07-08T10:13:49.346976,14.88692272,.00101493,97.7999,187.6551,75.7007,284.5336,0,U,67365,999,2645,.28573315E-3,.2615E-4,0
LEMUR-2-SONNENBLUME,2026-004E,2026-07-08T10:16:10.870176,14.88431677,.00096786,97.7993,187.6326,77.0049,283.2248,0,U,67367,999,2645,.19362966E-3,.1743E-4,0
LEMUR-2-WOBLER,2026-004F,2026-07-08T10:02:19.926816,14.88667919,.0009886,97.8047,187.7666,69.2439,290.9837,0,U,67368,999,2645,.27999823E-3,.256E-4,0
LEMUR-2-GRAM-E-SUE,2026-004H,2026-07-07T22:32:44.745792,14.88567504,.00088366,97.7979,187.1679,80.8974,279.3242,0,U,67370,999,2638,.20231984E-3,.1829E-4,0
LEMUR-2-KATIE,2026-004AA,2026-07-08T07:22:28.717248,14.90210933,.00040332,97.8044,188.0585,49.1270,311.0297,0,U,67387,999,2645,.241156E-3,.2282E-4,0
LEMUR-2-HCS-BAZUS,2026-004AB,2026-07-08T10:33:36.638496,14.90238828,.00034744,97.8032,188.1688,49.1715,310.9803,0,U,67388,999,2647,.14331152E-3,.1335E-4,0
